HULIANWANG DIGUI-49     
1 65106U 25168A   26064.78939523 -.00000035  00000+0  19257-3 0  9999
2 65106  50.0049 336.8134 0007420 153.9733 206.1513 13.29338837 28937
HULIANWANG DIGUI-50     
1 65107U 25168B   26064.78099274 -.00000031  00000+0  20047-3 0  9995
2 65107  50.0019 336.7127 0008385 139.9921 220.1570 13.29339500 28937
HULIANWANG DIGUI-51     
1 65108U 25168C   26064.77262737 -.00000036  00000+0  19016-3 0  9990
2 65108  50.0056 336.7389 0009742 139.9471 220.2121 13.29339769 28937
HULIANWANG DIGUI-52     
1 65109U 25168D   26064.76438824 -.00000033  00000+0  19694-3 0  9991
2 65109  50.0050 336.6784 0009619 152.8394 207.2983 13.29338410 28934
HULIANWANG DIGUI-53     
1 65110U 25168E   26064.75603311 -.00000040  00000+0  18163-3 0  9995
2 65110  50.0057 336.6568 0008425 142.5000 217.6461 13.29338256 28931
HULIANWANG DIGUI-54     
1 65111U 25168F   26064.80633538 -.00000030  00000+0  20188-3 0  9995
2 65111  50.0008 336.1669 0010011 148.0104 212.1377 13.29335491 28940
HULIANWANG DIGUI-55     
1 65112U 25168G   26064.74760504 -.00000035  00000+0  19085-3 0  9992
2 65112  50.0013 336.5302 0011299 143.6129 216.5513 13.29338971 28937
HULIANWANG DIGUI-56     
1 65113U 25168H   26064.73927093 -.00000038  00000+0  18436-3 0  9992
2 65113  50.0005 336.4713 0010997 165.6179 194.5008 13.29338342 28933
HULIANWANG DIGUI-57     
1 65114U 25168J   26064.79800649 -.00000030  00000+0  20192-3 0  9990
2 65114  50.0033 336.1712 0008747 156.2485 203.8792 13.29335323 28959
HULIANWANG DIGUI-58     
1 65164U 25174A   26064.76541951  .00000048  00000+0  78456-4 0  9992
2 65164  86.4926 286.9583 0001260  87.9482 272.1796 13.24421123 27104
HULIANWANG DIGUI-59     
1 65165U 25174B   26064.77297031  .00000073  00000+0  13541-3 0  9992
2 65165  86.4886 286.8850 0001246  87.2061 272.9216 13.24421325 27105
HULIANWANG DIGUI-60     
1 65166U 25174C   26064.78049804  .00000085  00000+0  16448-3 0  9999
2 65166  86.4918 286.9520 0001221  89.3774 270.7500 13.24421544 27109
HULIANWANG DIGUI-61     
1 65167U 25174D   26064.71256266  .00000101  00000+0  20114-3 0  9999
2 65167  86.4927 286.9977 0001174  88.5523 271.5745 13.24420120 27093
HULIANWANG DIGUI-62     
1 65168U 25174E   26064.72007061  .00000094  00000+0  18500-3 0  9995
2 65168  86.4868 286.8842 0001174  90.7491 269.3777 13.24421443 27096
HULIANWANG DIGUI-63     
1 65169U 25174F   26064.72761041  .00000083  00000+0  15860-3 0  9995
2 65169  86.4921 286.9913 0001196  88.0913 272.0358 13.24421825 27090
HULIANWANG DIGUI-64     
1 65170U 25174G   26064.73516710  .00000074  00000+0  13913-3 0  9996
2 65170  86.4880 286.9140 0001186  90.6788 269.4482 13.24421883 27098
