[{"OBJECT_NAME":"HULIANWANG DIGUI-49","OBJECT_ID":"2025-168A","EPOCH":"2026-03-05T18:56:43.747872","MEAN_MOTION":13.29338837,"ECCENTRICITY":0.000742,"INCLINATION":50.0049,"RA_OF_ASC_NODE":336.8134,"ARG_OF_PERICENTER":153.9733,"MEAN_ANOMALY":206.1513,"EPHEMERIS_TYPE":0,"CLASSIFICATION_TYPE":"U","NORAD_CAT_ID":65106,"ELEMENT_SET_NO":999,"REV_AT_EPOCH":2893,"BSTAR":0.00019257,"MEAN_MOTION_DOT":-3.5e-7,"MEAN_MOTION_DDOT":0},{"OBJECT_NAME":"HULIANWANG DIGUI-50","OBJECT_ID":"2025-168B","EPOCH":"2026-03-05T18:44:37.772736","MEAN_MOTION":13.293395,"ECCENTRICITY":0.0008385,"INCLINATION":50.0019,"RA_OF_ASC_NODE":336.7127,"ARG_OF_PERICENTER":139.9921,"MEAN_ANOMALY":220.157,"EPHEMERIS_TYPE":0,"CLASSIFICATION_TYPE":"U","NORAD_CAT_ID":65107,"ELEMENT_SET_NO":999,"REV_AT_EPOCH":2893,"BSTAR":0.00020047,"MEAN_MOTION_DOT":-3.1e-7,"MEAN_MOTION_DDOT":0},{"OBJECT_NAME":"HULIANWANG DIGUI-51","OBJECT_ID":"2025-168C","EPOCH":"2026-03-05T18:32:35.004768","MEAN_MOTION":13.29339769,"ECCENTRICITY":0.0009742,"INCLINATION":50.0056,"RA_OF_ASC_NODE":336.7389,"ARG_OF_PERICENTER":139.9471,"MEAN_ANOMALY":220.2121,"EPHEMERIS_TYPE":0,"CLASSIFICATION_TYPE":"U","NORAD_CAT_ID":65108,"ELEMENT_SET_NO":999,"REV_AT_EPOCH":2893,"BSTAR":0.00019016,"MEAN_MOTION_DOT":-3.6e-7,"MEAN_MOTION_DDOT":0},{"OBJECT_NAME":"HULIANWANG DIGUI-52","OBJECT_ID":"2025-168D","EPOCH":"2026-03-05T18:20:43.143936","MEAN_MOTION":13.2933841,"ECCENTRICITY":0.0009619,"INCLINATION":50.005,"RA_OF_ASC_NODE":336.6784,"ARG_OF_PERICENTER":152.8394,"MEAN_ANOMALY":207.2983,"EPHEMERIS_TYPE":0,"CLASSIFICATION_TYPE":"U","NORAD_CAT_ID":65109,"ELEMENT_SET_NO":999,"REV_AT_EPOCH":2893,"BSTAR":0.00019694,"MEAN_MOTION_DOT":-3.3e-7,"MEAN_MOTION_DDOT":0},{"OBJECT_NAME":"HULIANWANG DIGUI-53","OBJECT_ID":"2025-168E","EPOCH":"2026-03-05T18:08:41.260704","MEAN_MOTION":13.29338256,"ECCENTRICITY":0.0008425,"INCLINATION":50.0057,"RA_OF_ASC_NODE":336.6568,"ARG_OF_PERICENTER":142.5,"MEAN_ANOMALY":217.6461,"EPHEMERIS_TYPE":0,"CLASSIFICATION_TYPE":"U","NORAD_CAT_ID":65110,"ELEMENT_SET_NO":999,"REV_AT_EPOCH":2893,"BSTAR":0.00018163,"MEAN_MOTION_DOT":-4.0e-7,"MEAN_MOTION_DDOT":0},{"OBJECT_NAME":"HULIANWANG DIGUI-54","OBJECT_ID":"2025-168F","EPOCH":"2026-03-05T19:21:07.376832","MEAN_MOTION":13.29335491,"ECCENTRICITY":0.0010011,"INCLINATION":50.0008,"RA_OF_ASC_NODE":336.1669,"ARG_OF_PERICENTER":148.0104,"MEAN_ANOMALY":212.1377,"EPHEMERIS_TYPE":0,"CLASSIFICATION_TYPE":"U","NORAD_CAT_ID":65111,"ELEMENT_SET_NO":999,"REV_AT_EPOCH":2894,"BSTAR":0.00020188,"MEAN_MOTION_DOT":-3.0e-7,"MEAN_MOTION_DDOT":0},{"OBJECT_NAME":"HULIANWANG DIGUI-55","OBJECT_ID":"2025-168G","EPOCH":"2026-03-05T17:56:33.075456","MEAN_MOTION":13.29338971,"ECCENTRICITY":0.0011299,"INCLINATION":50.0013,"RA_OF_ASC_NODE":336.5302,"ARG_OF_PERICENTER":143.6129,"MEAN_ANOMALY":216.5513,"EPHEMERIS_TYPE":0,"CLASSIFICATION_TYPE":"U","NORAD_CAT_ID":65112,"ELEMENT_SET_NO":999,"REV_AT_EPOCH":2893,"BSTAR":0.00019085,"MEAN_MOTION_DOT":-3.5e-7,"MEAN_MOTION_DDOT":0},{"OBJECT_NAME":"HULIANWANG DIGUI-56","OBJECT_ID":"2025-168H","EPOCH":"2026-03-05T17:44:33.008352","MEAN_MOTION":13.29338342,"ECCENTRICITY":0.0010997,"INCLINATION":50.0005,"RA_OF_ASC_NODE":336.4713,"ARG_OF_PERICENTER":165.6179,"MEAN_ANOMALY":194.5008,"EPHEMERIS_TYPE":0,"CLASSIFICATION_TYPE":"U","NORAD_CAT_ID":65113,"ELEMENT_SET_NO":999,"REV_AT_EPOCH":2893,"BSTAR":0.00018436,"MEAN_MOTION_DOT":-3.8e-7,"MEAN_MOTION_DDOT":0},{"OBJECT_NAME":"HULIANWANG DIGUI-57","OBJECT_ID":"2025-168J","EPOCH":"2026-03-05T19:09:07.760736","MEAN_MOTION":13.29335323,"ECCENTRICITY":0.0008747,"INCLINATION":50.0033,"RA_OF_ASC_NODE":336.1712,"ARG_OF_PERICENTER":156.2485,"MEAN_ANOMALY":203.8792,"EPHEMERIS_TYPE":0,"CLASSIFICATION_TYPE":"U","NORAD_CAT_ID":65114,"ELEMENT_SET_NO":999,"REV_AT_EPOCH":2895,"BSTAR":0.00020192,"MEAN_MOTION_DOT":-3.0e-7,"MEAN_MOTION_DDOT":0},{"OBJECT_NAME":"HULIANWANG DIGUI-58","OBJECT_ID":"2025-174A","EPOCH":"2026-03-05T18:22:12.245664","MEAN_MOTION":13.24421123,"ECCENTRICITY":0.000126,"INCLINATION":86.4926,"RA_OF_ASC_NODE":286.9583,"ARG_OF_PERICENTER":87.9482,"MEAN_ANOMALY":272.1796,"EPHEMERIS_TYPE":0,"CLASSIFICATION_TYPE":"U","NORAD_CAT_ID":65164,"ELEMENT_SET_NO":999,"REV_AT_EPOCH":2710,"BSTAR":7.8456e-5,"MEAN_MOTION_DOT":4.8e-7,"MEAN_MOTION_DDOT":0},{"OBJECT_NAME":"HULIANWANG DIGUI-59","OBJECT_ID":"2025-174B","EPOCH":"2026-03-05T18:33:04.634784","MEAN_MOTION":13.24421325,"ECCENTRICITY":0.0001246,"INCLINATION":86.4886,"RA_OF_ASC_NODE":286.885,"ARG_OF_PERICENTER":87.2061,"MEAN_ANOMALY":272.9216,"EPHEMERIS_TYPE":0,"CLASSIFICATION_TYPE":"U","NORAD_CAT_ID":65165,"ELEMENT_SET_NO":999,"REV_AT_EPOCH":2710,"BSTAR":0.00013541,"MEAN_MOTION_DOT":7.3e-7,"MEAN_MOTION_DDOT":0},{"OBJECT_NAME":"HULIANWANG DIGUI-60","OBJECT_ID":"2025-174C","EPOCH":"2026-03-05T18:43:55.030656","MEAN_MOTION":13.24421544,"ECCENTRICITY":0.0001221,"INCLINATION":86.4918,"RA_OF_ASC_NODE":286.952,"ARG_OF_PERICENTER":89.3774,"MEAN_ANOMALY":270.75,"EPHEMERIS_TYPE":0,"CLASSIFICATION_TYPE":"U","NORAD_CAT_ID":65166,"ELEMENT_SET_NO":999,"REV_AT_EPOCH":2710,"BSTAR":0.00016448,"MEAN_MOTION_DOT":8.5e-7,"MEAN_MOTION_DDOT":0},{"OBJECT_NAME":"HULIANWANG DIGUI-61","OBJECT_ID":"2025-174D","EPOCH":"2026-03-05T17:06:05.413824","MEAN_MOTION":13.2442012,"ECCENTRICITY":0.0001174,"INCLINATION":86.4927,"RA_OF_ASC_NODE":286.9977,"ARG_OF_PERICENTER":88.5523,"MEAN_ANOMALY":271.5745,"EPHEMERIS_TYPE":0,"CLASSIFICATION_TYPE":"U","NORAD_CAT_ID":65167,"ELEMENT_SET_NO":999,"REV_AT_EPOCH":2709,"BSTAR":0.00020114,"MEAN_MOTION_DOT":1.01e-6,"MEAN_MOTION_DDOT":0},{"OBJECT_NAME":"HULIANWANG DIGUI-62","OBJECT_ID":"2025-174E","EPOCH":"2026-03-05T17:16:54.100704","MEAN_MOTION":13.24421443,"ECCENTRICITY":0.0001174,"INCLINATION":86.4868,"RA_OF_ASC_NODE":286.8842,"ARG_OF_PERICENTER":90.7491,"MEAN_ANOMALY":269.3777,"EPHEMERIS_TYPE":0,"CLASSIFICATION_TYPE":"U","NORAD_CAT_ID":65168,"ELEMENT_SET_NO":999,"REV_AT_EPOCH":2709,"BSTAR":0.000185,"MEAN_MOTION_DOT":9.4e-7,"MEAN_MOTION_DDOT":0},{"OBJECT_NAME":"HULIANWANG DIGUI-63","OBJECT_ID":"2025-174F","EPOCH":"2026-03-05T17:27:45.539424","MEAN_MOTION":13.24421825,"ECCENTRICITY":0.0001196,"INCLINATION":86.4921,"RA_OF_ASC_NODE":286.9913,"ARG_OF_PERICENTER":88.0913,"MEAN_ANOMALY":272.0358,"EPHEMERIS_TYPE":0,"CLASSIFICATION_TYPE":"U","NORAD_CAT_ID":65169,"ELEMENT_SET_NO":999,"REV_AT_EPOCH":2709,"BSTAR":0.0001586,"MEAN_MOTION_DOT":8.3e-7,"MEAN_MOTION_DDOT":0},{"OBJECT_NAME":"HULIANWANG DIGUI-64","OBJECT_ID":"2025-174G","EPOCH":"2026-03-05T17:38:38.437440","MEAN_MOTION":13.24421883,"ECCENTRICITY":0.0001186,"INCLINATION":86.488,"RA_OF_ASC_NODE":286.914,"ARG_OF_PERICENTER":90.6788,"MEAN_ANOMALY":269.4482,"EPHEMERIS_TYPE":0,"CLASSIFICATION_TYPE":"U","NORAD_CAT_ID":65170,"ELEMENT_SET_NO":999,"REV_AT_EPOCH":2709,"BSTAR":0.00013913,"MEAN_MOTION_DOT":7.4e-7,"MEAN_MOTION_DDOT":0}]
